ONEWEB-0668             
1 56711U 23068B   24261.53814399  .00000358  00000+0  90153-3 0  9992
2 56711  87.9164 355.7599 0002276  88.2003 271.9389 13.16595826 68579
ONEWEB-0676             
1 56712U 23068C   24261.51836271  .00000229  00000+0  56538-3 0  9990
2 56712  87.9171 355.7762 0001324 108.2628 251.8647 13.16594607 68490
ONEWEB-0677             
1 56713U 23068D   24260.93577430  .00000062  00000+0  11966-3 0  9996
2 56713  87.9227  41.4145 0001537  87.6470 272.4839 13.20768454 65552
ONEWEB-0678             
1 56714U 23068E   24260.88688798  .00000239  00000+0  60191-3 0  9991
2 56714  87.9096  26.1864 0001681 109.8564 250.2747 13.15546557 65369
ONEWEB-0679             
1 56715U 23068F   24261.25949710  .00000163  00000+0  39369-3 0  9997
2 56715  87.9167 355.8285 0001681  77.5907 282.5412 13.16595814 68484
ONEWEB-0680             
1 56716U 23068G   24260.82516126  .00000095  00000+0  19950-3 0  9999
2 56716  87.9360  11.1233 0002309  83.1936 276.9460 13.21827247 67469
ONEWEB-0681             
1 56717U 23068H   24260.83537513  .00000078  00000+0  15698-3 0  9990
2 56717  87.9357  11.1001 0000801  79.7153 280.4071 13.21821495 67452
ONEWEB-0682             
1 56718U 23068J   24260.91302511 -.00000029  00000+0 -11151-3 0  9996
2 56718  87.9095  26.2199 0001969  82.3770 277.7584 13.15545911 66230
